ONEWEB-0435             
1 51632U 22012L   24282.37970618 -.00000486  00000+0 -14285-2 0  9994
2 51632  87.8957 159.0583 0001880  87.9532 272.1811 13.10372968128536
ONEWEB-0436             
1 51633U 22012M   24282.53459175 -.00000048  00000+0 -15810-3 0  9993
2 51633  87.9091 128.6932 0001899  85.9780 274.1569 13.17649448132477
ONEWEB-0438             
1 51634U 22012N   24282.36311405  .00000252  00000+0  68675-3 0  9990
2 51634  87.8951 159.0623 0001418  74.8250 285.3034 13.10371857128568
ONEWEB-0439             
1 51635U 22012P   24282.59550897 -.00000125  00000+0 -39569-3 0  9997
2 51635  87.8953 159.0022 0001650  78.1458 281.9854 13.10369248128573
ONEWEB-0442             
1 51636U 22012Q   24282.60292911 -.00000080  00000+0 -23873-3 0  9991
2 51636  87.9096 128.7182 0001213  59.0109 301.1141 13.17648458132477
ONEWEB-0443             
1 51637U 22012R   24282.31855880 -.00004346  00000+0 -11230-1 0  9991
2 51637  87.9090 128.7856 0001268  94.9117 265.2160 13.17668046132484
ONEWEB-0444             
1 51638U 22012S   24282.35647995  .00000563  00000+0  15760-2 0  9990
2 51638  87.8950 159.0652 0001650  81.4642 278.6672 13.10371579128553
ONEWEB-0445             
1 51639U 22012T   24282.37806656 -.00000063  00000+0 -21643-3 0  9999
2 51639  87.8944 159.0277 0001597  66.4576 293.6719 13.10370385128563
